OBJECT_NAME,OBJECT_ID,EPOCH,MEAN_MOTION,ECCENTRICITY,INCLINATION,RA_OF_ASC_NODE,ARG_OF_PERICENTER,MEAN_ANOMALY,EPHEMERIS_TYPE,CLASSIFICATION_TYPE,NORAD_CAT_ID,ELEMENT_SET_NO,REV_AT_EPOCH,BSTAR,MEAN_MOTION_DOT,MEAN_MOTION_DDOT
IRIDIUM 135,2017-083A,2026-07-10T05:52:43.270464,14.34217171,.00021812,86.3981,312.3761,93.4059,266.7386,0,U,43070,999,44745,.5247004E-5,.34E-6,0
IRIDIUM 138,2017-083B,2026-07-10T18:12:31.197024,14.34217544,.0002077,86.3996,311.8606,91.6236,268.5197,0,U,43071,999,44751,.45167E-4,.146E-5,0
IRIDIUM 116,2017-083C,2026-07-10T17:26:50.590752,14.34220153,.0002404,86.3983,312.1606,99.2562,260.8905,0,U,43072,999,44754,.4542E-4,.147E-5,0
IRIDIUM 130,2017-083D,2026-07-10T06:38:23.302176,14.34216740,.00021648,86.3991,312.6264,101.1268,259.0172,0,U,43073,999,44742,.4712155E-4,.152E-5,0
IRIDIUM 151,2017-083E,2026-07-10T17:45:07.204608,14.34217189,.000222,86.3985,312.2135,95.2834,264.8615,0,U,43074,999,44751,.55311E-4,.175E-5,0
IRIDIUM 134,2017-083F,2026-07-10T08:37:07.224096,14.34217301,.0002075,86.3983,312.3811,95.5782,264.5650,0,U,43075,999,44742,.53297E-4,.169E-5,0
IRIDIUM 137,2017-083G,2026-07-10T17:17:43.352160,14.34217434,.0002652,86.3987,312.3232,95.5249,264.6250,0,U,43076,999,44754,.36463E-4,.122E-5,0
IRIDIUM 141,2017-083H,2026-07-10T07:05:46.993056,14.34218284,.00021922,86.3981,312.3299,92.2897,267.8550,0,U,43077,999,44748,.5392576E-5,.35E-6,0
IRIDIUM 153,2017-083J,2026-07-10T05:56:55.389120,14.34217659,.0002115,86.3961,280.8301,94.2606,265.8831,0,U,43078,999,44858,.35355552E-4,.119E-5,0
IRIDIUM 131,2017-083K,2026-07-10T06:47:31.286400,14.34216775,.00020794,86.3985,312.5225,92.5828,267.5606,0,U,43079,999,44741,-.3813306E-4,-.87E-6,0
IRIDIUM 144,2018-030A,2026-07-10T06:06:03.432096,14.34217693,.00023826,86.3959,280.7559,96.9893,263.1574,0,U,43249,999,43344,-.1470777E-5,.16E-6,0
IRIDIUM 149,2018-030B,2026-07-10T11:16:35.450400,14.34217483,.00022497,86.3960,280.6327,93.8646,266.2807,0,U,43250,999,43349,.46671161E-4,.15E-5,0
IRIDIUM 157,2018-030C,2026-07-10T05:02:07.611648,14.34216466,.0002252,86.3961,280.7949,93.9359,266.2095,0,U,43251,999,43343,.10954022E-4,.5E-6,0
IRIDIUM 140,2018-030D,2026-07-10T15:32:19.514112,14.34216246,.0002212,86.3960,280.6247,95.5490,264.5958,0,U,43252,999,43355,.25603E-4,.91E-6,0
IRIDIUM 145,2018-030E,2026-07-10T15:14:03.226848,14.34216304,.0002437,86.3956,280.6022,102.2638,257.8831,0,U,43253,999,43348,.22391E-4,.82E-6,0
IRIDIUM 146,2018-030F,2026-07-10T04:43:51.321792,14.34217536,.00024049,86.3960,280.7972,98.0496,262.0973,0,U,43254,999,43343,.58026678E-4,.182E-5,0
IRIDIUM 148,2018-030G,2026-07-10T15:41:27.667680,14.34216650,.000234,86.3962,280.6498,94.1649,265.9814,0,U,43255,999,43353,.24609E-4,.89E-6,0
IRIDIUM 142,2018-030H,2026-07-10T18:16:43.486752,14.34217678,.0002405,86.3959,280.4927,98.1214,262.0254,0,U,43256,999,43351,.46169E-4,.149E-5,0
IRIDIUM 150,2018-030J,2026-07-10T04:07:18.893280,14.34219143,.00022151,86.3963,280.8566,95.9860,264.1588,0,U,43257,999,43345,-.94435944E-4,-.245E-5,0
IRIDIUM 143,2018-030K,2026-07-10T15:23:11.376096,14.34217733,.0002324,86.3964,280.7536,97.9591,262.1869,0,U,43258,999,43345,.63816E-4,.199E-5,0
IRIDIUM 161,2018-047C,2026-07-10T19:27:32.384736,14.43284782,.0002318,86.4467,78.5924,78.7347,281.4114,0,U,43478,999,42854,.43582E-4,.167E-5,0
IRIDIUM 152,2018-047D,2026-07-10T18:04:50.766240,14.34219031,.0002153,86.3942,78.4778,82.5761,277.5680,0,U,43479,999,42586,.42226E-4,.138E-5,0
IRIDIUM 147,2018-047E,2026-07-10T04:50:14.070336,14.34216920,.00022754,86.3943,78.7142,88.4445,271.7011,0,U,43480,999,42578,.70122931E-4,.216E-5,0
IRIDIUM 110,2018-047F,2026-07-10T15:02:10.317120,14.34217473,.0002207,86.3947,78.6291,76.8206,283.3235,0,U,43481,999,42583,.48638E-4,.156E-5,0
IRIDIUM 162,2018-047G,2026-07-10T02:40:06.655296,14.43283456,.00021871,86.4467,78.7759,84.2783,275.8667,0,U,43482,999,42843,.50126108E-4,.189E-5,0
IRIDIUM 160,2018-061A,2026-07-10T00:20:26.459232,14.34217652,.00022527,86.3937,47.2497,86.2180,273.9273,0,U,43569,999,41664,.32630468E-4,.111E-5,0
IRIDIUM 166,2018-061B,2026-07-10T12:40:14.359008,14.34217857,.0002258,86.3941,46.9848,89.6994,270.4461,0,U,43570,999,41674,.18862E-5,.25E-6,0
IRIDIUM 158,2018-061C,2026-07-10T00:11:18.435264,14.34216771,.00020042,86.3938,47.2127,86.2707,273.8718,0,U,43571,999,41663,-.36731752E-4,-.83E-6,0
IRIDIUM 165,2018-061D,2026-07-09T13:04:34.349664,14.34216760,.00022568,86.3944,47.4530,90.6727,269.4727,0,U,43572,999,41659,.26099215E-4,.93E-6,0
IRIDIUM 155,2018-061E,2026-07-10T13:16:46.388352,14.34216517,.0001996,86.3933,46.8984,87.9352,272.2072,0,U,43573,999,41670,-.20631E-4,-.38E-6,0
